STARLINK-35405          
1 66440U 25259U   25333.83335647 -.02015095  00000+0 -27033-1 0  9997
2 66440  42.9998 122.8428 0001329 288.7613 191.9189 15.60596300  4209
STARLINK-35426          
1 66441U 25259V   25333.83335647 -.01940391  00000+0 -25940-1 0  9998
2 66441  42.9995 122.8370 0001449 285.6432 196.9591 15.60549036  4207
STARLINK-34724          
1 66442U 25259W   25333.83335647 -.01948956  00000+0 -26064-1 0  9992
2 66442  42.9995 122.8329 0001294 284.7667 199.7486 15.60556961  4209
STARLINK-35219          
1 66443U 25259X   25333.83335647 -.01945267  00000+0 -26010-1 0  9996
2 66443  42.9994 122.8283 0001322 284.7636 201.6700 15.60554263  4098
STARLINK-35360          
1 66444U 25259Y   25333.83335647 -.01940633  00000+0 -25943-1 0  9993
2 66444  42.9995 122.8128 0001424 286.5789 205.6081 15.60550269  4201
STARLINK-34698          
1 66445U 25259Z   25333.83335647 -.01934099  00000+0 -25846-1 0  9995
2 66445  42.9995 122.8223 0001393 284.8557 203.4953 15.60548065  4099
STARLINK-34986          
1 66446U 25259AA  25333.83335647 -.01928705  00000+0 -25768-1 0  9996
2 66446  42.9996 122.8169 0001405 286.1782 204.0915 15.60544392  4206
STARLINK-34851          
1 66447U 25259AB  25333.83335647 -.01944339  00000+0 -25996-1 0  9991
2 66447  42.9998 122.8082 0001312 283.0901 211.0115 15.60554235  4093
STARLINK-35355          
1 66448U 25259AC  25333.83335647 -.01945877  00000+0 -26020-1 0  9999
2 66448  42.9997 122.8032 0001390 285.7880 210.2339 15.60553197  4207
STARLINK-34720          
1 66449U 25259AD  25333.83335647 -.01932621  00000+0 -25825-1 0  9995
2 66449  42.9996 122.7980 0001398 283.4919 214.4454 15.60546563  4094
STARLINK-35334          
1 66450U 25259AE  25333.83335647 -.01933199  00000+0 -25834-1 0  9998
2 66450  42.9997 122.7922 0001317 282.5578 217.2972 15.60547076  4204
VIASAT-3 F2             
1 66454U 25261A   25330.74705039 -.00000051  00000+0  00000+0 0  9994
2 66454   5.5832 293.8608 2341324 182.7714 334.4159  2.28187844   288
